{
"type": "FeatureCollection",
"name": "county",
"crs": { "type": "name", "properties": { "name": "urn:ogc:def:crs:OGC:1.3:CRS84" } },
"features": [
{ "type": "Feature", "properties": { }, "geometry": { "type": "Polygon", "coordinates": [ [ [ -85.85755702154421, 38.047281436065454 ], [ -85.877280286856987, 38.041695915088702 ], [ -85.880111785178883, 38.040967644222548 ], [ -85.882179595390355, 38.040923893444116 ], [ -85.882652401655903, 38.040663930229513 ], [ -85.882763047476715, 38.040421279133405 ], [ -85.882622843426802, 38.040058320081584 ], [ -85.88276810347223, 38.039721981853695 ], [ -85.883004335587046, 38.039512161436299 ], [ -85.883560918517844, 38.039384072725667 ], [ -85.883796949885564, 38.039119200258234 ], [ -85.883285273111639, 38.037919986557633 ], [ -85.883618229347647, 38.037489611414514 ], [ -85.886081314180458, 38.036811474526608 ], [ -85.887228390063385, 38.036279991544795 ], [ -85.888639443238645, 38.035488981819704 ], [ -85.889457953428959, 38.034440676194436 ], [ -85.890425489793444, 38.034405056832846 ], [ -85.891084797383243, 38.033682030475148 ], [ -85.892621952143699, 38.033094170871173 ], [ -85.894845613638822, 38.031761462927541 ], [ -85.895741209659107, 38.030927607702374 ], [ -85.897207298270956, 38.029904857172056 ], [ -85.897742395592218, 38.029699833728259 ], [ -85.898236798764472, 38.029720544513061 ], [ -85.898973577827846, 38.029333046527562 ], [ -85.900199898114664, 38.029693293938074 ], [ -85.90048442270971, 38.029389690936448 ], [ -85.900698135226776, 38.02867875662723 ], [ -85.900975995640948, 38.028490812289725 ], [ -85.901422059848201, 38.028643854815606 ], [ -85.902642983880469, 38.029543694524882 ], [ -85.903088503383671, 38.029514879557368 ], [ -85.904360436689743, 38.028889262016243 ], [ -85.904665036691341, 38.028326760320823 ], [ -85.904188488831309, 38.027270725008947 ], [ -85.904304894089464, 38.026653688411351 ], [ -85.904687172592062, 38.026443336687301 ], [ -85.904998392972672, 38.025809258867667 ], [ -85.906326439952338, 38.025299107496956 ], [ -85.906637879269852, 38.024752981801782 ], [ -85.906740456908395, 38.024124988351261 ], [ -85.906634841158962, 38.02375080512909 ], [ -85.905288311152063, 38.022774189062147 ], [ -85.905168668366926, 38.022345123128432 ], [ -85.906139562801329, 38.021169551843244 ], [ -85.90649123932603, 38.020116760628966 ], [ -85.906797039654236, 38.019961653858083 ], [ -85.90703408099246, 38.020076763912293 ], [ -85.906894727287167, 38.022268730388483 ], [ -85.907125398785055, 38.022554505518592 ], [ -85.90780101213204, 38.02271234067188 ], [ -85.909081340504812, 38.022538155944027 ], [ -85.910106209127719, 38.023053015795725 ], [ -85.910390085516255, 38.022584126359568 ], [ -85.910298151705305, 38.022110811957113 ], [ -85.909370476055727, 38.021524093550582 ], [ -85.909187409195667, 38.020874845902561 ], [ -85.90922724454586, 38.020241461371633 ], [ -85.909657234005579, 38.019728191528827 ], [ -85.909976882440816, 38.019573067681691 ], [ -85.910512969726298, 38.019626727560507 ], [ -85.912151775553312, 38.020563818352315 ], [ -85.912757716814099, 38.020677782791566 ], [ -85.913448894078215, 38.019150509475999 ], [ -85.914440750680541, 38.015898813972292 ], [ -85.915278859925976, 38.014624343801586 ], [ -85.915443938002056, 38.014029287376665 ], [ -85.915156826269268, 38.013484863770074 ], [ -85.914416959964981, 38.012815099306131 ], [ -85.913969074453973, 38.012100474327738 ], [ -85.913847035249887, 38.010916911940228 ], [ -85.914089409389589, 38.010514298347239 ], [ -85.915278931373109, 38.010329159544618 ], [ -85.915651475737533, 38.009331339885776 ], [ -85.916737252402257, 38.009361471787521 ], [ -85.91807260726344, 38.009071290587634 ], [ -85.918952620443804, 38.01001599695438 ], [ -85.919782256761792, 38.010432223450714 ], [ -85.921412067339787, 38.00872599423456 ], [ -85.923039767859805, 38.008363272310504 ], [ -85.924747199031401, 38.007069976360697 ], [ -85.924848286089656, 38.00611144686426 ], [ -85.925145669070403, 38.005537953849071 ], [ -85.926355608189752, 38.005242522100488 ], [ -85.926945060859822, 38.004640713227928 ], [ -85.929804904710906, 38.002484768315931 ], [ -85.930518454371949, 38.001552048903115 ], [ -85.930835766821488, 38.000686992095403 ], [ -85.932048949096824, 37.998661683286763 ], [ -85.932350116471056, 37.998268094639769 ], [ -85.933510919453113, 37.997475233879918 ], [ -85.934730188513271, 37.997249194839547 ], [ -85.93504205873694, 37.997471366541276 ], [ -85.935413237041914, 37.99860768604799 ], [ -85.935722352344612, 37.998856149156083 ], [ -85.938279056133183, 37.998648591881484 ], [ -85.944816411501122, 38.002346435876539 ], [ -85.94712719123045, 38.005075376604928 ], [ -85.943758643801488, 38.006265811770881 ], [ -85.942698180708433, 38.006826178462781 ], [ -85.939524263887577, 38.009814513000883 ], [ -85.933513570996766, 38.014088664350744 ], [ -85.931118336959813, 38.015995002263139 ], [ -85.928156137558858, 38.018769144169674 ], [ -85.925686452538727, 38.021762623400491 ], [ -85.923652478528325, 38.024866455690365 ], [ -85.921463773647815, 38.029728199978599 ], [ -85.920724570248396, 38.032108353645917 ], [ -85.919824936031716, 38.035953780959851 ], [ -85.918977212814653, 38.040709359395585 ], [ -85.918364302378436, 38.048779527720548 ], [ -85.917035063236085, 38.057261645177462 ], [ -85.916439192688912, 38.059580057429791 ], [ -85.916222131389276, 38.063207987343425 ], [ -85.915104266417643, 38.067699933865029 ], [ -85.913528781807784, 38.072836274944123 ], [ -85.91328832024972, 38.073077856630903 ], [ -85.913242395960339, 38.071787001733632 ], [ -85.913087690035852, 38.071330848242553 ], [ -85.912153586330945, 38.073038847273068 ], [ -85.909168525916328, 38.079966160494742 ], [ -85.907673247017584, 38.082943077248871 ], [ -85.905312320290079, 38.088820587656294 ], [ -85.905037416926646, 38.090006936833333 ], [ -85.904252687372221, 38.099220257241079 ], [ -85.904407215713562, 38.101334915747643 ], [ -85.904258346196301, 38.103472172179593 ], [ -85.904470328663521, 38.10705400955171 ], [ -85.905427262835289, 38.111827705777898 ], [ -85.90808551949398, 38.129602670081958 ], [ -85.908629508071385, 38.137493368785208 ], [ -85.908864598228718, 38.138303833721125 ], [ -85.909014769049975, 38.140452711972372 ], [ -85.90908795615195, 38.142569672455352 ], [ -85.908669825196256, 38.14927724490456 ], [ -85.908234148854774, 38.153164128630181 ], [ -85.908090799336108, 38.156449330543595 ], [ -85.908171127706169, 38.158121807839422 ], [ -85.906939068817138, 38.165527768724495 ], [ -85.90617706198131, 38.167916759820521 ], [ -85.903335228687524, 38.174440029646881 ], [ -85.899066704631508, 38.18127839068179 ], [ -85.895537151168341, 38.186098470856372 ], [ -85.886220462086499, 38.197113086180124 ], [ -85.881894442936101, 38.201633044505158 ], [ -85.88085756127505, 38.20240591546002 ], [ -85.877872224309328, 38.205190608012188 ], [ -85.877540055229545, 38.205676390562651 ], [ -85.874955691221075, 38.207709477657872 ], [ -85.869976685984227, 38.210683820985629 ], [ -85.861622729428788, 38.216114671369276 ], [ -85.856924344009244, 38.218830438234633 ], [ -85.85565790818147, 38.219957093378184 ], [ -85.854678180112728, 38.220446384012639 ], [ -85.852386464521246, 38.222034567043615 ], [ -85.851670090731503, 38.222617000773766 ], [ -85.850105969291391, 38.224474986038551 ], [ -85.847573392427833, 38.227073788320766 ], [ -85.844044263314132, 38.231573649485739 ], [ -85.841700564713648, 38.235139745869297 ], [ -85.840692341815057, 38.237034947929374 ], [ -85.840302586987804, 38.23737361725096 ], [ -85.838898972662491, 38.240374127096587 ], [ -85.83833773801382, 38.244571943292456 ], [ -85.838171302210554, 38.244614551768876 ], [ -85.838068155823279, 38.245328292446416 ], [ -85.838045483710985, 38.246087984753323 ], [ -85.838194317693336, 38.246120977543029 ], [ -85.838085542193056, 38.24773048312791 ], [ -85.837368876577429, 38.250090989226997 ], [ -85.837128310534609, 38.252598988127424 ], [ -85.837282610704179, 38.255839031780063 ], [ -85.837609251125372, 38.257684304473052 ], [ -85.837591799284965, 38.259612001025914 ], [ -85.836915553953091, 38.262183255554525 ], [ -85.836680576909075, 38.263868960306226 ], [ -85.836193543733401, 38.265143729439188 ], [ -85.835368442253696, 38.266302929423532 ], [ -85.835368515118802, 38.266654468712595 ], [ -85.834102330427172, 38.268648894666626 ], [ -85.833202517620919, 38.269440214289382 ], [ -85.83241739578763, 38.271159452915924 ], [ -85.829059717416555, 38.27656003559693 ], [ -85.826745078911472, 38.278406149309589 ], [ -85.82476242563574, 38.279692281892885 ], [ -85.820975006991176, 38.281340298662393 ], [ -85.818396779174591, 38.282175678667855 ], [ -85.812197619919161, 38.283389737102127 ], [ -85.810633431649364, 38.283427973275771 ], [ -85.809602069073875, 38.283752086486913 ], [ -85.805986985187502, 38.284296007363139 ], [ -85.798821003018801, 38.28519590987181 ], [ -85.795772833474828, 38.286173312851133 ], [ -85.793544362151778, 38.287331864338888 ], [ -85.791074830021756, 38.287568049340145 ], [ -85.788055160477782, 38.288363940814122 ], [ -85.786765889587173, 38.288533849610076 ], [ -85.782158463764404, 38.288400734097856 ], [ -85.781579694938699, 38.288219673095718 ], [ -85.781183906390666, 38.288313073652851 ], [ -85.77710980292116, 38.286158689788898 ], [ -85.774010251599776, 38.285756277847085 ], [ -85.773070631562575, 38.285767156223329 ], [ -85.77155285385021, 38.284618184889204 ], [ -85.771467018019166, 38.284464462236009 ], [ -85.771598695472946, 38.284228619433833 ], [ -85.771369661311098, 38.283810885263911 ], [ -85.768917926918917, 38.282277187001448 ], [ -85.768030043658428, 38.281320987679372 ], [ -85.767147880902982, 38.281019167446743 ], [ -85.766391627569135, 38.280551473691666 ], [ -85.765950636203556, 38.279381750196499 ], [ -85.766036712536447, 38.279018963896021 ], [ -85.766638392429641, 38.278536033016735 ], [ -85.767119811741921, 38.277580389837823 ], [ -85.767022659377986, 38.276755872578612 ], [ -85.766432388783869, 38.276222994872953 ], [ -85.765177693641576, 38.276135076441754 ], [ -85.765191021255703, 38.275563411393492 ], [ -85.764771084835999, 38.275574102450982 ], [ -85.764444386923287, 38.275282938267011 ], [ -85.764696410827924, 38.274843712214995 ], [ -85.764100651482323, 38.274722630021735 ], [ -85.763052168968514, 38.273398072444053 ], [ -85.760919570911994, 38.271920497760043 ], [ -85.75866164890509, 38.27111187115085 ], [ -85.755628142042951, 38.269592800366866 ], [ -85.755090712242605, 38.26905591754057 ], [ -85.754420194743631, 38.269000632806765 ], [ -85.751479886593671, 38.268005295921114 ], [ -85.747463873965529, 38.26722117826894 ], [ -85.743217880419223, 38.267290295324692 ], [ -85.740861882040562, 38.267873294972546 ], [ -85.73776288059841, 38.269097295235447 ], [ -85.73349888094549, 38.271498297232839 ], [ -85.730107878445523, 38.273065295428943 ], [ -85.729930879962424, 38.273442298348975 ], [ -85.728080140256296, 38.274410830785669 ], [ -85.725129486969408, 38.275602450061371 ], [ -85.724704455166602, 38.275972393905107 ], [ -85.723899803446429, 38.276305930624133 ], [ -85.721337763547751, 38.277195085011428 ], [ -85.720992578652314, 38.277477156080884 ], [ -85.710664215170837, 38.282016163675031 ], [ -85.700196240122182, 38.287364267272217 ], [ -85.690201840503519, 38.291926963377279 ], [ -85.685426682941667, 38.294279064525078 ], [ -85.680746237401664, 38.296810734403294 ], [ -85.676972811526554, 38.299476531154973 ], [ -85.673959656250972, 38.301853833059255 ], [ -85.672998332643985, 38.303274567485012 ], [ -85.673003550059761, 38.30352288092719 ], [ -85.672162287216167, 38.304877772222071 ], [ -85.67123702960059, 38.306844760957951 ], [ -85.670033028184307, 38.308352346609126 ], [ -85.667862065440318, 38.310379061209076 ], [ -85.665320576815375, 38.31358940393423 ], [ -85.664424789808564, 38.314427902020505 ], [ -85.662528350832574, 38.316676854124005 ], [ -85.659428555632957, 38.319675858502499 ], [ -85.658689365604545, 38.320071310632969 ], [ -85.658465687244373, 38.320598357798026 ], [ -85.657348504902615, 38.321911006492655 ], [ -85.655509290599525, 38.323734021095113 ], [ -85.653183158338905, 38.327270884466557 ], [ -85.651521463171662, 38.330269836290768 ], [ -85.651280907900684, 38.331489000133544 ], [ -85.644314860531935, 38.346024315407121 ], [ -85.642342756525565, 38.353622233298175 ], [ -85.639380613295984, 38.361113452796566 ], [ -85.638629968206018, 38.36386537933739 ], [ -85.638452162908422, 38.366671606298858 ], [ -85.638285982480966, 38.377333088014645 ], [ -85.637814273922473, 38.380238228039438 ], [ -85.626561604282983, 38.374146575014464 ], [ -85.569267822019754, 38.341707995685866 ], [ -85.578281861377931, 38.341064419978203 ], [ -85.584482149114677, 38.339800575550498 ], [ -85.58525447226711, 38.339422386477978 ], [ -85.57470336483145, 38.333951164742075 ], [ -85.561239710158176, 38.337148522180634 ], [ -85.52681187413539, 38.317972292252087 ], [ -85.498326402111914, 38.301732895608509 ], [ -85.468104211258066, 38.285260212465609 ], [ -85.404850803761576, 38.263737605402945 ], [ -85.407348782986645, 38.248377306230097 ], [ -85.407648780931126, 38.248509306439139 ], [ -85.407766783278859, 38.248970305582176 ], [ -85.408253784119267, 38.249547305564981 ], [ -85.408392786751179, 38.249672308178035 ], [ -85.408635786352079, 38.24984430699741 ], [ -85.408814781968402, 38.250002306442845 ], [ -85.408999786683964, 38.250282305337898 ], [ -85.409093989032414, 38.250397727983874 ], [ -85.409796786689341, 38.251127305514309 ], [ -85.410077785608124, 38.251241304830842 ], [ -85.410233786943024, 38.251283306903986 ], [ -85.411051783243224, 38.251358306312227 ], [ -85.411130786109439, 38.251345307089871 ], [ -85.411257786364388, 38.25130230525486 ], [ -85.411312784418541, 38.251296307156451 ], [ -85.411618785392378, 38.251365307896528 ], [ -85.412017785484124, 38.251809306421848 ], [ -85.412261787090443, 38.252001307822809 ], [ -85.412366785257674, 38.252231306218533 ], [ -85.412641786936859, 38.252477308344687 ], [ -85.41314678595073, 38.252649305364272 ], [ -85.413195786250569, 38.252646308011634 ], [ -85.413267562416294, 38.252629831871467 ], [ -85.412649328952071, 38.252472005143211 ], [ -85.412269329084054, 38.251996004645591 ], [ -85.411626327366832, 38.251360004760478 ], [ -85.411320326408173, 38.251291004040134 ], [ -85.410241329010091, 38.251278003857351 ], [ -85.409804328772097, 38.251122002495769 ], [ -85.408822324006081, 38.249997003487103 ], [ -85.407774325285885, 38.248965002693573 ], [ -85.40765632289893, 38.248504003557855 ], [ -85.407571324305238, 38.248446004778017 ], [ -85.407356324962578, 38.248372003368097 ], [ -85.407305267117877, 38.24836699971415 ], [ -85.414651407477606, 38.203851660650464 ], [ -85.414707908364591, 38.204058959638175 ], [ -85.414816985077536, 38.204130893613176 ], [ -85.414965668483106, 38.204165962134155 ], [ -85.415128183348457, 38.204290941557822 ], [ -85.415605683986882, 38.204252093174702 ], [ -85.41573452390449, 38.20420214309857 ], [ -85.415837863334303, 38.204096424319957 ], [ -85.416003612625886, 38.204041134575121 ], [ -85.415133567071365, 38.204276161111473 ], [ -85.414971052229731, 38.204151181695138 ], [ -85.414713292155781, 38.204044179210904 ], [ -85.414656791264918, 38.203836880225488 ], [ -85.428892450135777, 38.118332418786764 ], [ -85.479487654899728, 38.100223316445067 ], [ -85.515829969174945, 38.08871910937237 ], [ -85.55724225836093, 38.073810000125988 ], [ -85.578598198966858, 38.075771527870025 ], [ -85.712591364300067, 38.08729379739664 ], [ -85.85755702154421, 38.047281436065454 ] ] ] } }
]
}
