{
"type": "FeatureCollection",
"name": "metro_council",
"crs": { "type": "name", "properties": { "name": "urn:ogc:def:crs:OGC:1.3:CRS84" } },
"features": [
{ "type": "Feature", "properties": { "district": 1 }, "geometry": { "type": "Polygon", "coordinates": [ [ [ -85.819213380479454, 38.25027507699307 ], [ -85.819271046507069, 38.249610688034601 ], [ -85.819921534779141, 38.249648882176061 ], [ -85.820117465540932, 38.246829479276307 ], [ -85.820865779047011, 38.246902576583203 ], [ -85.821112365721262, 38.244189242064778 ], [ -85.81617706080327, 38.243743853680158 ], [ -85.815701081938741, 38.246439982938853 ], [ -85.805896900403184, 38.245561288604868 ], [ -85.805745902859343, 38.249823288027592 ], [ -85.802382222040421, 38.249709546346189 ], [ -85.802489411391306, 38.245195625822234 ], [ -85.802663957551331, 38.243929436578519 ], [ -85.800986897373249, 38.243757288196008 ], [ -85.801225898711536, 38.242424286644727 ], [ -85.79574892751053, 38.241941290079112 ], [ -85.796627606424181, 38.234096258600289 ], [ -85.798184762342629, 38.233436068407485 ], [ -85.798609227472497, 38.230332143650891 ], [ -85.802496198171283, 38.230674302601692 ], [ -85.80232323158252, 38.231929290667225 ], [ -85.808286990824527, 38.232102518818422 ], [ -85.808859072387875, 38.227465816145106 ], [ -85.807851361279845, 38.227385202515393 ], [ -85.807504128373168, 38.227180091566289 ], [ -85.806775006288433, 38.227085782675239 ], [ -85.816481024020518, 38.21690082268929 ], [ -85.824604034930331, 38.209039277270861 ], [ -85.832738988068641, 38.202838560713253 ], [ -85.827247852219372, 38.202552814400384 ], [ -85.827294952192702, 38.200914376473342 ], [ -85.827574047902658, 38.199207053343919 ], [ -85.828230327647177, 38.197174972093265 ], [ -85.830241148076638, 38.192294690515226 ], [ -85.830400469839844, 38.191339606050853 ], [ -85.83032476654968, 38.190338624710805 ], [ -85.83266090577726, 38.190396140116583 ], [ -85.832781723317638, 38.190026809732743 ], [ -85.830176959383962, 38.189907212649707 ], [ -85.829907734462736, 38.189156854713318 ], [ -85.829422772267421, 38.18842910727659 ], [ -85.828133352379112, 38.187229117479809 ], [ -85.828531301892298, 38.181969024141019 ], [ -85.833531935291063, 38.182174120725058 ], [ -85.833702995268453, 38.180104616029496 ], [ -85.833831091677354, 38.180014551895667 ], [ -85.846472340252788, 38.181000216598214 ], [ -85.846635518702669, 38.179840278071211 ], [ -85.846931785967357, 38.179339722909347 ], [ -85.848221887720783, 38.17844998070337 ], [ -85.848822780564177, 38.178763932925079 ], [ -85.851594207396417, 38.175976734779425 ], [ -85.849447906708804, 38.172362270538287 ], [ -85.849202048744331, 38.171568500912173 ], [ -85.848784905239015, 38.172216270544837 ], [ -85.846460903345019, 38.171749271156727 ], [ -85.848789907815927, 38.175803272157793 ], [ -85.846922903398792, 38.177707272535038 ], [ -85.845075011398521, 38.176682927449086 ], [ -85.844436807765234, 38.176490334453327 ], [ -85.834945951315305, 38.176016811647308 ], [ -85.835204128427392, 38.172858532345799 ], [ -85.841834246563366, 38.173129409913145 ], [ -85.840351270658246, 38.169832600580925 ], [ -85.840527045353596, 38.168162182506606 ], [ -85.841213535977232, 38.167112195954154 ], [ -85.841899562103492, 38.166756949700677 ], [ -85.844571045133321, 38.166705302386212 ], [ -85.844914455668956, 38.166879208760101 ], [ -85.84623448030888, 38.166947886041172 ], [ -85.847383793613687, 38.166686649524635 ], [ -85.847992799406924, 38.169136070630671 ], [ -85.848656429859261, 38.170038026910888 ], [ -85.850742048346419, 38.171444965475764 ], [ -85.852874245026356, 38.172087276835803 ], [ -85.853344070834808, 38.172128464337248 ], [ -85.862371911651834, 38.168360269845415 ], [ -85.867405911709341, 38.168605270492428 ], [ -85.867733913008507, 38.169346270493499 ], [ -85.867757913372145, 38.169954269844865 ], [ -85.868047238252871, 38.169974281434108 ], [ -85.870348892758045, 38.16706309164222 ], [ -85.868248058131172, 38.166095567183099 ], [ -85.868547117240496, 38.165443584742363 ], [ -85.868741208056775, 38.164053521468936 ], [ -85.869085870732562, 38.163387995839578 ], [ -85.87028249733558, 38.162087056314121 ], [ -85.871642739024992, 38.160921646353565 ], [ -85.872900034742543, 38.160248169247609 ], [ -85.874121172234339, 38.159920712763771 ], [ -85.878605736618709, 38.160303631064643 ], [ -85.88028795804766, 38.160083457678894 ], [ -85.881289230296588, 38.159581082681889 ], [ -85.882543821672087, 38.158651101077133 ], [ -85.882929946651174, 38.158018650850863 ], [ -85.88308838780938, 38.157262913420851 ], [ -85.88467291645722, 38.157525268003226 ], [ -85.883721917551526, 38.159420268812383 ], [ -85.88164691694034, 38.161162267016593 ], [ -85.884566915665872, 38.163549269126996 ], [ -85.889927920265194, 38.166333269689567 ], [ -85.891310921216302, 38.166567268715276 ], [ -85.892470916792945, 38.166121267651484 ], [ -85.892779920627646, 38.166427267170988 ], [ -85.892002917927357, 38.169695269437099 ], [ -85.890446308223915, 38.174290203055826 ], [ -85.890087920491268, 38.175166268430644 ], [ -85.88958469209625, 38.175414653167039 ], [ -85.895370439453245, 38.17857092846166 ], [ -85.899673218802349, 38.180330917202681 ], [ -85.898287126391594, 38.182384723820498 ], [ -85.894757614837488, 38.187055974295127 ], [ -85.890718484762189, 38.191641913240403 ], [ -85.886220461861512, 38.197113086555341 ], [ -85.881894442568367, 38.201633044866107 ], [ -85.880857560961928, 38.202405915889344 ], [ -85.877872224014979, 38.205190608361576 ], [ -85.877540055480338, 38.205676390735093 ], [ -85.87449177023575, 38.208006454840572 ], [ -85.869976685450581, 38.210683820699529 ], [ -85.861622729131227, 38.216114671370327 ], [ -85.856924343682962, 38.218830438340404 ], [ -85.855657908296408, 38.21995709374638 ], [ -85.854678180425864, 38.220446384327502 ], [ -85.851670091306048, 38.222617000971319 ], [ -85.85010596899663, 38.224474985638551 ], [ -85.84757339252586, 38.227073788409704 ], [ -85.844044263811853, 38.231573649460316 ], [ -85.841700564212005, 38.235139746105823 ], [ -85.840692341766527, 38.237034948109127 ], [ -85.840302586454683, 38.23737361745539 ], [ -85.839159473192666, 38.239714820087642 ], [ -85.836482704550676, 38.239605029431324 ], [ -85.830619743197005, 38.239028028644213 ], [ -85.830529215174153, 38.23972800048643 ], [ -85.828128587122592, 38.239512632839954 ], [ -85.827845905916092, 38.2429732856369 ], [ -85.826644906858391, 38.242865287141029 ], [ -85.826426905663425, 38.243450287055538 ], [ -85.826325927222598, 38.244657080423366 ], [ -85.824443904571979, 38.244488284893812 ], [ -85.824196907619921, 38.245725287810195 ], [ -85.825403905277653, 38.245934285802086 ], [ -85.82498644151076, 38.25047164839048 ], [ -85.819213380479454, 38.25027507699307 ] ] ] } },
{ "type": "Feature", "properties": { "district": 3 }, "geometry": { "type": "Polygon", "coordinates": [ [ [ -85.795431895349694, 38.233926286765154 ], [ -85.790087892457379, 38.232602283644802 ], [ -85.78971289354098, 38.233399286104031 ], [ -85.788531892877586, 38.233100285974473 ], [ -85.789760895913815, 38.23007428603681 ], [ -85.784625892415335, 38.229704285525948 ], [ -85.784943889546483, 38.226311316977416 ], [ -85.781718487814373, 38.226076274582873 ], [ -85.782101199322099, 38.223964082299283 ], [ -85.783495463624703, 38.220456481700104 ], [ -85.783627493013242, 38.220476571541049 ], [ -85.780373890752088, 38.219957284822257 ], [ -85.77775189085304, 38.219760285391338 ], [ -85.777386023530752, 38.220068195418023 ], [ -85.775549156184283, 38.217567548826786 ], [ -85.780562891568138, 38.215293282827858 ], [ -85.781396005327878, 38.216289170377792 ], [ -85.784812106181562, 38.212873542746856 ], [ -85.787084321577126, 38.2096257975995 ], [ -85.783372890308428, 38.204646280047278 ], [ -85.784319979372228, 38.204202387441164 ], [ -85.784666898648666, 38.204622279434524 ], [ -85.786623889185449, 38.203704280231527 ], [ -85.786998888532025, 38.204172282978178 ], [ -85.788143891725554, 38.203452279666351 ], [ -85.788202889546554, 38.202460280919908 ], [ -85.787826992029949, 38.202567215178206 ], [ -85.787376892071975, 38.201962279929774 ], [ -85.788121888409449, 38.201880281902319 ], [ -85.78818689187618, 38.200764278997845 ], [ -85.789993890059023, 38.200497279463576 ], [ -85.79003789223907, 38.199378281305016 ], [ -85.790577891904633, 38.199378280693729 ], [ -85.790620889831629, 38.198381280317911 ], [ -85.791761891589047, 38.198364279574832 ], [ -85.791761893164008, 38.19718027945256 ], [ -85.792945889714275, 38.197214280374197 ], [ -85.792924944608018, 38.196616791701807 ], [ -85.79333383282065, 38.196628172493376 ], [ -85.793486891157755, 38.19402227617266 ], [ -85.794961893785256, 38.194074277857773 ], [ -85.795136892673639, 38.193708278859958 ], [ -85.796543894175258, 38.193827276347008 ], [ -85.796718893029251, 38.193961278808523 ], [ -85.796623894482437, 38.196018278925791 ], [ -85.799073893893151, 38.196095280174859 ], [ -85.799294893447183, 38.195278279154643 ], [ -85.800400896973244, 38.194690277790407 ], [ -85.800719893738957, 38.194213275614338 ], [ -85.80092489586265, 38.190467275305409 ], [ -85.801493892136008, 38.187954276855869 ], [ -85.801070930617584, 38.186155194251334 ], [ -85.80895117826114, 38.185413811622752 ], [ -85.826011652150726, 38.162549130295943 ], [ -85.825876629211066, 38.16274857367123 ], [ -85.830309806131467, 38.164926257302277 ], [ -85.828078294345957, 38.169152185785975 ], [ -85.824760398202073, 38.172993601078325 ], [ -85.823488828772611, 38.174200613762018 ], [ -85.82625690149078, 38.175332274403395 ], [ -85.82774989914445, 38.175616274082735 ], [ -85.830391900072328, 38.175640274089986 ], [ -85.830371511675182, 38.175907139052654 ], [ -85.844436807765234, 38.176490334453327 ], [ -85.845075011398521, 38.176682927449086 ], [ -85.846922903398792, 38.177707272535038 ], [ -85.848789907815927, 38.175803272157793 ], [ -85.846460903345019, 38.171749271156727 ], [ -85.848784905239015, 38.172216270544837 ], [ -85.849216523163506, 38.171571735537 ], [ -85.849447906708804, 38.172362270538287 ], [ -85.851594207396417, 38.175976734779425 ], [ -85.848822780564177, 38.178763932925079 ], [ -85.848221887720783, 38.17844998070337 ], [ -85.846931785967357, 38.179339722909347 ], [ -85.846635518702669, 38.179840278071211 ], [ -85.846472340252788, 38.181000216598214 ], [ -85.833831091677354, 38.180014551895667 ], [ -85.833702995268453, 38.180104616029496 ], [ -85.833531935291063, 38.182174120725058 ], [ -85.828531301892298, 38.181969024141019 ], [ -85.828133352379112, 38.187229117479809 ], [ -85.829422772267421, 38.18842910727659 ], [ -85.829907734462736, 38.189156854713318 ], [ -85.830176959383962, 38.189907212649707 ], [ -85.832781723317638, 38.190026809732743 ], [ -85.83266090577726, 38.190396140116583 ], [ -85.83032476654968, 38.190338624710805 ], [ -85.830400469839844, 38.191339606050853 ], [ -85.830241148076638, 38.192294690515226 ], [ -85.828230327647177, 38.197174972093265 ], [ -85.827574047902658, 38.199207053343919 ], [ -85.827294952192702, 38.200914376473342 ], [ -85.827247852219372, 38.202552814400384 ], [ -85.832738988068641, 38.202838560713253 ], [ -85.824604034930331, 38.209039277270861 ], [ -85.816481024020518, 38.21690082268929 ], [ -85.806775006288433, 38.227085782675239 ], [ -85.807504128373168, 38.227180091566289 ], [ -85.807851361279845, 38.227385202515393 ], [ -85.808859072387875, 38.227465816145106 ], [ -85.808286990824527, 38.232102518818422 ], [ -85.80232323158252, 38.231929290667225 ], [ -85.802496198171283, 38.230674302601692 ], [ -85.798609227472497, 38.230332143650891 ], [ -85.798184762342629, 38.233436068407485 ], [ -85.79506117579345, 38.234752667725253 ], [ -85.795431895349694, 38.233926286765154 ] ] ] } },
{ "type": "Feature", "properties": { "district": 5 }, "geometry": { "type": "Polygon", "coordinates": [ [ [ -85.786765890034516, 38.288533849723365 ], [ -85.782158463258583, 38.288400733709878 ], [ -85.781579694449761, 38.288219673192927 ], [ -85.781183906926472, 38.288313073776457 ], [ -85.777109802509671, 38.286158690087319 ], [ -85.774010251370029, 38.285756277659338 ], [ -85.77307063211488, 38.28576715602815 ], [ -85.772005470924526, 38.285063546555975 ], [ -85.771467017975738, 38.284464462100757 ], [ -85.771598695074744, 38.284228619771454 ], [ -85.771369660851505, 38.283810885650922 ], [ -85.768917926850904, 38.282277186802247 ], [ -85.768030043404096, 38.281320987399766 ], [ -85.766758192278914, 38.280809845380013 ], [ -85.76617401265645, 38.280254778874401 ], [ -85.765950636743781, 38.279381750342978 ], [ -85.766036712613769, 38.279018963978906 ], [ -85.76663839206185, 38.27853603315463 ], [ -85.767182835372409, 38.277261871007788 ], [ -85.766839230285797, 38.276514156424064 ], [ -85.766432389284745, 38.276222995233937 ], [ -85.76517769352715, 38.276135076226183 ], [ -85.765191021101828, 38.275563411708724 ], [ -85.764771085280657, 38.275574102135252 ], [ -85.764444387379172, 38.275282938433797 ], [ -85.764696411254747, 38.27484371192056 ], [ -85.764100651321797, 38.274722630172761 ], [ -85.763052169057019, 38.273398072132444 ], [ -85.761235001599729, 38.272101880133818 ], [ -85.772214624945946, 38.262948553061811 ], [ -85.772542617694413, 38.262186278612354 ], [ -85.772817602136755, 38.25976365557338 ], [ -85.785999283624619, 38.26127080167614 ], [ -85.785739299067359, 38.263207867506701 ], [ -85.789058816618919, 38.263550043798809 ], [ -85.789833111532374, 38.25909772322138 ], [ -85.790185589771042, 38.259134794241646 ], [ -85.790463286575672, 38.257556242990084 ], [ -85.791023330798879, 38.257618723176726 ], [ -85.792094511374344, 38.251408894148838 ], [ -85.794633631918828, 38.251692548649288 ], [ -85.794883047105799, 38.249455059279825 ], [ -85.805745902859343, 38.249823288027592 ], [ -85.805896900403184, 38.245561288604868 ], [ -85.815701081938741, 38.246439982938853 ], [ -85.81617706080327, 38.243743853680158 ], [ -85.821112365721262, 38.244189242064778 ], [ -85.820865779047011, 38.246902576583203 ], [ -85.820117465540932, 38.246829479276307 ], [ -85.819921534779141, 38.249648882176061 ], [ -85.819271046507069, 38.249610688034601 ], [ -85.819213380479454, 38.25027507699307 ], [ -85.82498644151076, 38.25047164839048 ], [ -85.825403905277653, 38.245934285802086 ], [ -85.824196907619921, 38.245725287810195 ], [ -85.824443904571979, 38.244488284893812 ], [ -85.826325927222598, 38.244657080423366 ], [ -85.826426905663425, 38.243450287055538 ], [ -85.826644906858391, 38.242865287141029 ], [ -85.827845905916092, 38.2429732856369 ], [ -85.828128587122592, 38.239512632839954 ], [ -85.830529215174153, 38.23972800048643 ], [ -85.830619743197005, 38.239028028644213 ], [ -85.836482704550676, 38.239605029431324 ], [ -85.839159473192666, 38.239714820087642 ], [ -85.838859087575841, 38.24054546972431 ], [ -85.838337737796735, 38.244571943566321 ], [ -85.838171302186922, 38.244614551851335 ], [ -85.838068155801906, 38.24532829222143 ], [ -85.838045484276904, 38.24608798480368 ], [ -85.838194316868083, 38.246120950510694 ], [ -85.838085542620604, 38.247730483498273 ], [ -85.8372603711924, 38.250692888457557 ], [ -85.837128306143811, 38.25259899118771 ], [ -85.837282606664729, 38.255839035559703 ], [ -85.837609251245794, 38.257684304667947 ], [ -85.837591799841292, 38.259612001072256 ], [ -85.836915545637481, 38.262183262653338 ], [ -85.836680577043055, 38.263868959978652 ], [ -85.836044617423013, 38.265462275380891 ], [ -85.83536843748648, 38.26630292973644 ], [ -85.835403031896902, 38.266550323091799 ], [ -85.835139286533035, 38.267060614548683 ], [ -85.833878632960278, 38.268934121534976 ], [ -85.833202521832632, 38.269440221221799 ], [ -85.832417396261903, 38.271159452535201 ], [ -85.829059717509921, 38.276560042874479 ], [ -85.826745083129083, 38.278406152280049 ], [ -85.824762420937816, 38.279692281843076 ], [ -85.823072294336654, 38.280521831491825 ], [ -85.818614443692184, 38.282120764344057 ], [ -85.812197619587963, 38.283389743793947 ], [ -85.810633427369439, 38.283427976660796 ], [ -85.809602064590322, 38.283752090154998 ], [ -85.805986989530339, 38.284296010823127 ], [ -85.798821002721752, 38.285195910153263 ], [ -85.795772832955905, 38.286173312955391 ], [ -85.793544362429841, 38.287331864192758 ], [ -85.791074830316148, 38.287568049471439 ], [ -85.788055160112705, 38.288363940451056 ], [ -85.786765890034516, 38.288533849723365 ] ] ] } },
{ "type": "Feature", "properties": { "district": 7 }, "geometry": { "type": "Polygon", "coordinates": [ [ [ -85.661937269585508, 38.286129063998779 ], [ -85.659123658454902, 38.28638600129652 ], [ -85.65715530589938, 38.286279958647057 ], [ -85.654922580165859, 38.286700234726382 ], [ -85.654238038576366, 38.286545057827617 ], [ -85.654342290905902, 38.2841498691295 ], [ -85.653898365861508, 38.282341262430357 ], [ -85.653473858540067, 38.282140302500643 ], [ -85.651913855893156, 38.282436302228788 ], [ -85.645463866263285, 38.274219510045882 ], [ -85.640916235008149, 38.276680690794102 ], [ -85.638199853124462, 38.278346300608803 ], [ -85.635855850488113, 38.280272304135302 ], [ -85.633772851597726, 38.282338301773919 ], [ -85.633033849959759, 38.283204304540732 ], [ -85.636299853191986, 38.287224305089971 ], [ -85.630731851207329, 38.29030630330503 ], [ -85.630635844846594, 38.290352823634372 ], [ -85.629622701901724, 38.289090587828056 ], [ -85.629670852083166, 38.288955306612699 ], [ -85.628758851795681, 38.287952303503829 ], [ -85.628383851510662, 38.287077303458595 ], [ -85.628244851521643, 38.287164305308174 ], [ -85.626378850816664, 38.284804304587979 ], [ -85.621294846883231, 38.287643304890771 ], [ -85.621048848366712, 38.288053306134124 ], [ -85.621033847468667, 38.288436306276054 ], [ -85.619316845949996, 38.288766303615667 ], [ -85.613947771232233, 38.291756060234391 ], [ -85.611740556718459, 38.292461839520193 ], [ -85.608867696669591, 38.292490145356005 ], [ -85.607141115790043, 38.292252552541065 ], [ -85.605849845598684, 38.29248730657612 ], [ -85.600772841760602, 38.296438305901518 ], [ -85.592682448162321, 38.30044146902808 ], [ -85.587349604266777, 38.293678789824192 ], [ -85.586307031909527, 38.293134100561808 ], [ -85.583829251411728, 38.292933779459361 ], [ -85.583106587739437, 38.292724025580213 ], [ -85.582456590018907, 38.29229066067353 ], [ -85.581390510118894, 38.29097413420498 ], [ -85.590445975943837, 38.28661007885065 ], [ -85.586776222364861, 38.282009523784474 ], [ -85.587212981477705, 38.281799075808742 ], [ -85.586596538833291, 38.280985347104128 ], [ -85.58695759812133, 38.280554333512036 ], [ -85.586740740251287, 38.279982318499357 ], [ -85.585747453459575, 38.280342456864446 ], [ -85.584961006925255, 38.280257384999111 ], [ -85.584447699333737, 38.279715035137322 ], [ -85.584513835354755, 38.27893655891944 ], [ -85.581588836279806, 38.278439304908026 ], [ -85.581476834493472, 38.278409304567347 ], [ -85.581388913135982, 38.278370594460895 ], [ -85.580959836584341, 38.277953303960643 ], [ -85.580580736011456, 38.276933305712738 ], [ -85.579935836771483, 38.277199304136964 ], [ -85.579945834505281, 38.277455305181604 ], [ -85.579370837208501, 38.278072303148427 ], [ -85.578741834677572, 38.278272305945862 ], [ -85.578457833524155, 38.278083305885573 ], [ -85.578083836533096, 38.278365306620266 ], [ -85.578227836997485, 38.278589304164086 ], [ -85.577843836518809, 38.2790543065516 ], [ -85.576916833961008, 38.279403304151117 ], [ -85.575282721709343, 38.279279870932072 ], [ -85.574456348477426, 38.278891717985807 ], [ -85.573358305733393, 38.278631591315794 ], [ -85.571621149996972, 38.278693299881809 ], [ -85.570442250580811, 38.277063145008789 ], [ -85.568447729747717, 38.272562216083507 ], [ -85.57426607090018, 38.270800084457605 ], [ -85.577947241622795, 38.270027429322717 ], [ -85.606890005476956, 38.262034042930843 ], [ -85.603812575800376, 38.258673950908545 ], [ -85.609144547895454, 38.25573990732088 ], [ -85.606870843801332, 38.253281298851697 ], [ -85.607109844702023, 38.251463298079436 ], [ -85.609566844693234, 38.251630297107951 ], [ -85.609911746100266, 38.249113999041064 ], [ -85.639312642883027, 38.251601200531695 ], [ -85.638529228224542, 38.257676967291744 ], [ -85.639605045383036, 38.257640307858303 ], [ -85.640150739555054, 38.258718279451777 ], [ -85.644160255162404, 38.263503845865344 ], [ -85.650752980214435, 38.260224303332684 ], [ -85.65362994374776, 38.263660074806786 ], [ -85.653567812844301, 38.26378132948502 ], [ -85.654144261760564, 38.264510937850524 ], [ -85.655585895956477, 38.264161624495905 ], [ -85.656381004745029, 38.264293489719392 ], [ -85.656980889011436, 38.264087332616718 ], [ -85.657824854574926, 38.264970299446304 ], [ -85.662830574539186, 38.261960076540106 ], [ -85.665858762494821, 38.265822343685912 ], [ -85.672050201883621, 38.264198821425616 ], [ -85.672763863695877, 38.265291299200236 ], [ -85.672626862428345, 38.265363298156643 ], [ -85.67502786185679, 38.268144297037288 ], [ -85.682714241646437, 38.266361000892601 ], [ -85.684402186313903, 38.268426351270541 ], [ -85.685001726085773, 38.268803145249905 ], [ -85.685785409551343, 38.268945443448857 ], [ -85.687629506744543, 38.268566069879249 ], [ -85.688485001078874, 38.268839097286516 ], [ -85.689063414295532, 38.269774488289492 ], [ -85.689261542929955, 38.270636456727921 ], [ -85.689209975208286, 38.271495321950717 ], [ -85.688845052631393, 38.272198073117359 ], [ -85.690923812388107, 38.273375869238102 ], [ -85.692410450325681, 38.274556628760976 ], [ -85.690479214443414, 38.275324850466419 ], [ -85.693178961174169, 38.276047158813036 ], [ -85.696789231741022, 38.279121494048454 ], [ -85.697974346064001, 38.278266516327612 ], [ -85.703819620756477, 38.285465354660353 ], [ -85.700196239620482, 38.287364267444509 ], [ -85.690201840086317, 38.291926962995788 ], [ -85.685426683159335, 38.294279064162311 ], [ -85.680746236934681, 38.296810734398392 ], [ -85.676972811072787, 38.299476531100474 ], [ -85.667524764394258, 38.28833709705097 ], [ -85.666674354931885, 38.287730504081665 ], [ -85.664638790301737, 38.286845804623439 ], [ -85.663291699078599, 38.286352305726865 ], [ -85.661937269585508, 38.286129063998779 ] ] ] } },
{ "type": "Feature", "properties": { "district": 11 }, "geometry": { "type": "Polygon", "coordinates": [ [ [ -85.543509282319292, 38.224306607579209 ], [ -85.539170658976218, 38.224218929229174 ], [ -85.538746171318053, 38.222292979249538 ], [ -85.538904973604915, 38.216944898176443 ], [ -85.541011392315212, 38.217090683230616 ], [ -85.541611643583309, 38.217397641982018 ], [ -85.542040051983278, 38.217900881942995 ], [ -85.542543980717966, 38.217780508448364 ], [ -85.545133795899417, 38.217777318105718 ], [ -85.543471087077208, 38.212870864077715 ], [ -85.54363336336462, 38.212712692629687 ], [ -85.545075631153509, 38.212365662349256 ], [ -85.545248005207483, 38.212127816356634 ], [ -85.542780254975071, 38.204821731926046 ], [ -85.540755851344571, 38.199472148667638 ], [ -85.540278840383095, 38.199459049792146 ], [ -85.538812610991386, 38.199864455007102 ], [ -85.532410289280477, 38.200533312463982 ], [ -85.531147811828177, 38.200505241859339 ], [ -85.529753557116393, 38.200072865991359 ], [ -85.52815456759518, 38.200356036659699 ], [ -85.527086575689708, 38.198124095761997 ], [ -85.524650925416083, 38.196461731158422 ], [ -85.524247011259192, 38.193296188888752 ], [ -85.523845739663088, 38.192413849629581 ], [ -85.523839709216873, 38.18705616025759 ], [ -85.537587565606643, 38.1858801369467 ], [ -85.540892817272677, 38.185332288994275 ], [ -85.544462825797169, 38.18561108669563 ], [ -85.545689358115894, 38.18600255236602 ], [ -85.548051566799828, 38.18735774037593 ], [ -85.552040646862281, 38.188306248988816 ], [ -85.552207783322729, 38.189111053945943 ], [ -85.552653017019239, 38.189927282537411 ], [ -85.55392699444343, 38.191162701669299 ], [ -85.554725674907274, 38.19252607188497 ], [ -85.555774422444529, 38.192816791641434 ], [ -85.557457823569635, 38.192861355940046 ], [ -85.558096797510771, 38.193041657739819 ], [ -85.560480551706647, 38.194421512411395 ], [ -85.56241689131096, 38.194630634009449 ], [ -85.563451691361308, 38.195578796919698 ], [ -85.567451135495389, 38.193007887098901 ], [ -85.570067988888624, 38.19565285696261 ], [ -85.570429937193353, 38.197001234485789 ], [ -85.57442430772808, 38.197021637140764 ], [ -85.574575462540764, 38.195928402889848 ], [ -85.575150055417438, 38.195232474874409 ], [ -85.57629558615082, 38.195325990843934 ], [ -85.576947728072611, 38.19521155385101 ], [ -85.57760630822419, 38.195449638659817 ], [ -85.579148890155807, 38.194761871684989 ], [ -85.581457601844022, 38.194903682341241 ], [ -85.58147006112317, 38.19267071941929 ], [ -85.580787159916284, 38.192301894298289 ], [ -85.580734690497749, 38.191669293209465 ], [ -85.578371753557249, 38.191564996857423 ], [ -85.578463047202348, 38.19063407483646 ], [ -85.577193182275295, 38.190837590107556 ], [ -85.576592760747701, 38.190756964496465 ], [ -85.574746735941531, 38.189084923988055 ], [ -85.576750516757173, 38.188199604725952 ], [ -85.57852539016271, 38.187619463719543 ], [ -85.578018419628108, 38.186796020441591 ], [ -85.578001583890867, 38.185721197461049 ], [ -85.577755247647175, 38.185127502412662 ], [ -85.575554826673027, 38.18511328877954 ], [ -85.575759675391282, 38.183047303375105 ], [ -85.571120164367258, 38.182862312135605 ], [ -85.571384038944416, 38.178955530420389 ], [ -85.571674812970144, 38.178449497889474 ], [ -85.572498860803236, 38.177666058869477 ], [ -85.572765968141937, 38.176932677402775 ], [ -85.573043574401254, 38.174354343168893 ], [ -85.572965355516146, 38.173221856341435 ], [ -85.578587035363199, 38.173733599581482 ], [ -85.584226593718711, 38.173999869359626 ], [ -85.584423904254905, 38.175096522696741 ], [ -85.584917489757061, 38.175883957501917 ], [ -85.58702675643157, 38.175916186087306 ], [ -85.59029306688015, 38.177534655059759 ], [ -85.591225337261861, 38.177770863820136 ], [ -85.591691276283868, 38.177781078121512 ], [ -85.591683121653404, 38.177663492288659 ], [ -85.593024728831921, 38.177303228925673 ], [ -85.593238353461743, 38.176733105775696 ], [ -85.592981640673074, 38.175951933104237 ], [ -85.593025246834344, 38.174520898055071 ], [ -85.598397832102734, 38.174693284707701 ], [ -85.59822583474093, 38.174942283966416 ], [ -85.598815835404594, 38.174809284434517 ], [ -85.599777834690855, 38.175243286151854 ], [ -85.600669836331519, 38.174763283545005 ], [ -85.606005440999326, 38.175407519514643 ], [ -85.605543834508865, 38.181222285516341 ], [ -85.605960829143214, 38.181016690647731 ], [ -85.609458200749685, 38.181088401316998 ], [ -85.609462838340036, 38.180938284609866 ], [ -85.609473804288285, 38.180901150926516 ], [ -85.609458969311078, 38.181088358123368 ], [ -85.610691627798417, 38.181136355683023 ], [ -85.611124607645067, 38.181430847096181 ], [ -85.612281385353953, 38.181200297651344 ], [ -85.616136052622366, 38.18133200626167 ], [ -85.615306506715541, 38.191683640954537 ], [ -85.615490819417715, 38.192539247480859 ], [ -85.615025839303556, 38.192854286913921 ], [ -85.61495892631136, 38.193705293635226 ], [ -85.615829847613796, 38.19369343866849 ], [ -85.618244836682564, 38.194339080157803 ], [ -85.618195842615094, 38.197008287668432 ], [ -85.618651224400296, 38.197756406054758 ], [ -85.616899281878645, 38.198224650453689 ], [ -85.613296960302023, 38.199603228188948 ], [ -85.612062305573957, 38.199845956519511 ], [ -85.619945185507731, 38.201947586108986 ], [ -85.620197157563965, 38.201737342523714 ], [ -85.620652839800215, 38.201812287502257 ], [ -85.621064842746051, 38.201026287413086 ], [ -85.622182840056752, 38.201350286930548 ], [ -85.622623842705821, 38.200656288707947 ], [ -85.623566520877304, 38.200396446258466 ], [ -85.624748297932982, 38.200893073497141 ], [ -85.623899544588667, 38.202323298969134 ], [ -85.623729544126348, 38.202904005691501 ], [ -85.626801523617516, 38.203129121017064 ], [ -85.627376744648629, 38.203414983033426 ], [ -85.628066602471492, 38.204151698255579 ], [ -85.623132841610598, 38.207507289190417 ], [ -85.62238484175505, 38.207046289526801 ], [ -85.619174373489201, 38.20896167794173 ], [ -85.619326112882035, 38.209742159956726 ], [ -85.619244746499632, 38.21084927760613 ], [ -85.618691310218594, 38.212316480602446 ], [ -85.618963454187735, 38.212697939126116 ], [ -85.620638837043188, 38.213262558306639 ], [ -85.62422286939146, 38.210812142372255 ], [ -85.626853177489366, 38.212760998317044 ], [ -85.622116319786599, 38.215025146362684 ], [ -85.623780307172424, 38.216934536239584 ], [ -85.625006230662905, 38.216236269269665 ], [ -85.627369016978534, 38.218854908106081 ], [ -85.62145784493849, 38.222175292178278 ], [ -85.620213842848415, 38.222529293340635 ], [ -85.619498843488543, 38.219540292698845 ], [ -85.600751991161147, 38.21870121387682 ], [ -85.597187247476839, 38.218143188070982 ], [ -85.59503496345279, 38.217484147743917 ], [ -85.592362042898486, 38.216286820739114 ], [ -85.589914303326609, 38.214726039193614 ], [ -85.588202338646838, 38.213170835090402 ], [ -85.585722119244352, 38.210322843879126 ], [ -85.58428260606874, 38.211054764660901 ], [ -85.583795631320925, 38.210482916126665 ], [ -85.582925833998246, 38.2110822906359 ], [ -85.582849834134009, 38.211779292101262 ], [ -85.580285604051497, 38.213198866259482 ], [ -85.57994783172704, 38.213110291535564 ], [ -85.579507693670223, 38.213953620592555 ], [ -85.578132833627251, 38.213576293194812 ], [ -85.57796719317669, 38.214555991582628 ], [ -85.573122910772398, 38.215822310114696 ], [ -85.571869829711915, 38.213792291758821 ], [ -85.553554831371471, 38.221678314682585 ], [ -85.552126532355288, 38.22418576966183 ], [ -85.552203673310586, 38.223923242954577 ], [ -85.543509282319292, 38.224306607579209 ] ] ] } },
{ "type": "Feature", "properties": { "district": 15 }, "geometry": { "type": "Polygon", "coordinates": [ [ [ -85.745325880078965, 38.222861288578997 ], [ -85.743431469414304, 38.221744703220075 ], [ -85.743967058593526, 38.21815827906854 ], [ -85.743544051570581, 38.216330320662422 ], [ -85.741747709119807, 38.21327069868817 ], [ -85.737558961685195, 38.206901620747992 ], [ -85.74532789066167, 38.207213283127331 ], [ -85.744028684409173, 38.204169783752917 ], [ -85.745044265452435, 38.203502128206033 ], [ -85.746029421262449, 38.2019348162002 ], [ -85.746629803655082, 38.20139978207721 ], [ -85.748965422001632, 38.200527104226126 ], [ -85.74946945459115, 38.200202107308002 ], [ -85.749819652263682, 38.199741776181838 ], [ -85.750804485352532, 38.199884471838672 ], [ -85.750891877416507, 38.194896280319732 ], [ -85.750253880726987, 38.194874280992536 ], [ -85.750253922002443, 38.193995364968693 ], [ -85.753762280411451, 38.194160822816677 ], [ -85.755564428477385, 38.1938493290249 ], [ -85.755247007127721, 38.192668954314293 ], [ -85.755005397887743, 38.192326653451268 ], [ -85.755076388521758, 38.192081721569572 ], [ -85.754614910101608, 38.190324189304079 ], [ -85.758482772658766, 38.190308459704831 ], [ -85.772060848816579, 38.189765720488168 ], [ -85.775094556535649, 38.189439701946924 ], [ -85.775241487563193, 38.188858113181951 ], [ -85.776300398015493, 38.188817994643522 ], [ -85.776379266762518, 38.18840040943352 ], [ -85.776587199093214, 38.18818362824836 ], [ -85.779780736888952, 38.187380155532914 ], [ -85.782651990026878, 38.187786412838747 ], [ -85.783119810663393, 38.184913266398155 ], [ -85.784021215407293, 38.184901463324685 ], [ -85.783169077198409, 38.179009613451932 ], [ -85.782820887240888, 38.177813278230857 ], [ -85.782573183400658, 38.175092811600223 ], [ -85.779384997587144, 38.162336590511956 ], [ -85.777583320662146, 38.155924159383382 ], [ -85.778064081244111, 38.1557539283205 ], [ -85.77986788173682, 38.15445355901965 ], [ -85.781975399568807, 38.15402533266365 ], [ -85.784449496603457, 38.151922975811431 ], [ -85.790793886946759, 38.152764270611762 ], [ -85.79277092521086, 38.15375087604923 ], [ -85.797635358226088, 38.15416463609067 ], [ -85.7989369043989, 38.154557233376266 ], [ -85.797784888383902, 38.160473272918068 ], [ -85.797946891028658, 38.160560272467563 ], [ -85.797172241157867, 38.168980801731053 ], [ -85.797204769884146, 38.169605399119433 ], [ -85.797550947320559, 38.170376669694662 ], [ -85.798024437959256, 38.170431220391158 ], [ -85.80321813527496, 38.172589942364013 ], [ -85.817869917507551, 38.173452560842797 ], [ -85.80895117826114, 38.185413811622752 ], [ -85.801070930617584, 38.186155194251334 ], [ -85.801493892136008, 38.187954276855869 ], [ -85.80092489586265, 38.190467275305409 ], [ -85.800607893713106, 38.194483277198408 ], [ -85.799294893447183, 38.195278279154643 ], [ -85.799073893893151, 38.196095280174859 ], [ -85.796623894482437, 38.196018278925791 ], [ -85.796688895245339, 38.19389728009515 ], [ -85.795136892673639, 38.193708278859958 ], [ -85.794961893785256, 38.194074277857773 ], [ -85.793486891157755, 38.19402227617266 ], [ -85.79333383282065, 38.196628172493376 ], [ -85.792924944608018, 38.196616791701807 ], [ -85.792945889714275, 38.197214280374197 ], [ -85.791761893164008, 38.19718027945256 ], [ -85.791761891589047, 38.198364279574832 ], [ -85.790620889831629, 38.198381280317911 ], [ -85.790577891904633, 38.199378280693729 ], [ -85.79003789223907, 38.199378281305016 ], [ -85.789993890059023, 38.200497279463576 ], [ -85.78818689187618, 38.200764278997845 ], [ -85.788121888409449, 38.201880281902319 ], [ -85.787376892071975, 38.201962279929774 ], [ -85.787826992029949, 38.202567215178206 ], [ -85.788202889546554, 38.202460280919908 ], [ -85.788143891725554, 38.203452279666351 ], [ -85.786998888532025, 38.204172282978178 ], [ -85.786623889185449, 38.203704280231527 ], [ -85.784666898648666, 38.204622279434524 ], [ -85.784319979372228, 38.204202387441164 ], [ -85.783372890308428, 38.204646280047278 ], [ -85.783604374908919, 38.204963561133638 ], [ -85.780800169090341, 38.206527055290891 ], [ -85.780412516610198, 38.206013492484431 ], [ -85.77936043301554, 38.206506006425116 ], [ -85.778007628670636, 38.204897198810848 ], [ -85.776194431577252, 38.206336662364784 ], [ -85.770538506728457, 38.205653411673538 ], [ -85.76985351285775, 38.209575007762282 ], [ -85.763233883980291, 38.208852282223951 ], [ -85.762281305673767, 38.213705386117816 ], [ -85.759691531171129, 38.213411072501913 ], [ -85.759395686151805, 38.215522392299647 ], [ -85.757476750687147, 38.214888935872345 ], [ -85.755107105904059, 38.214610353220344 ], [ -85.755358300389091, 38.213153947846159 ], [ -85.753798928347734, 38.212898557295709 ], [ -85.752908514492532, 38.212375167215896 ], [ -85.752394936517291, 38.215423560508043 ], [ -85.752292475067563, 38.218334319688758 ], [ -85.75214575868128, 38.218321954112305 ], [ -85.751618879609254, 38.220146287408561 ], [ -85.745325880078965, 38.222861288578997 ] ] ] } },
{ "type": "Feature", "properties": { "district": 17 }, "geometry": { "type": "Polygon", "coordinates": [ [ [ -85.545597898889113, 38.317281077310717 ], [ -85.539438824335647, 38.317578312521647 ], [ -85.540042826867989, 38.313409314523476 ], [ -85.539973460516237, 38.312423168780491 ], [ -85.539655825738308, 38.311769312398887 ], [ -85.537097531722367, 38.308274908695672 ], [ -85.53498783999747, 38.309273971004153 ], [ -85.533181662155599, 38.309433048208582 ], [ -85.530656511778844, 38.310417865820348 ], [ -85.531780106620801, 38.311995933000816 ], [ -85.532606850421786, 38.312132718273617 ], [ -85.532758606238019, 38.312830495630294 ], [ -85.529875925329847, 38.313705111296478 ], [ -85.529648107016115, 38.312991602877823 ], [ -85.529908346025778, 38.3111897108218 ], [ -85.528438019554528, 38.30911384410215 ], [ -85.527819465159638, 38.30866033576595 ], [ -85.526245948677669, 38.308259163283537 ], [ -85.523563441553435, 38.308204743567131 ], [ -85.522715224399917, 38.306770470237296 ], [ -85.521941512597451, 38.304902269766586 ], [ -85.521088442058655, 38.305126883496854 ], [ -85.520303310962277, 38.305028040856214 ], [ -85.519833062526033, 38.305408892527126 ], [ -85.517157070400827, 38.306270048195543 ], [ -85.517130956144726, 38.306726620335489 ], [ -85.518973519453283, 38.308853840800019 ], [ -85.514533941046494, 38.311024638257862 ], [ -85.498326401962828, 38.301732895784411 ], [ -85.47640584411063, 38.289792789499948 ], [ -85.480649849024431, 38.28813156686639 ], [ -85.485791556411613, 38.283262457632766 ], [ -85.488136679049177, 38.284288697638516 ], [ -85.494065356373639, 38.286190064692455 ], [ -85.497820040082331, 38.286355476046545 ], [ -85.50975089166424, 38.288043062471189 ], [ -85.510475223369554, 38.288300045327645 ], [ -85.512262412212806, 38.289519340777666 ], [ -85.513441441227059, 38.287919814009818 ], [ -85.514163819103658, 38.286458309671815 ], [ -85.514521853100021, 38.285285296805576 ], [ -85.515050807678861, 38.282324264201911 ], [ -85.51574381675573, 38.280899309838098 ], [ -85.519450301035519, 38.27594764461454 ], [ -85.52671123313975, 38.265538247543098 ], [ -85.525201935975204, 38.26102073047646 ], [ -85.523785667171708, 38.260855012037567 ], [ -85.523538972633204, 38.259356126337948 ], [ -85.524270624413248, 38.259287454319498 ], [ -85.524405452594763, 38.260210431760896 ], [ -85.525689392331017, 38.260366437916986 ], [ -85.525274742154934, 38.258716669334362 ], [ -85.527086249689063, 38.258083882391766 ], [ -85.527140691763108, 38.257244384959222 ], [ -85.526816697980848, 38.256607689262452 ], [ -85.52936270395648, 38.256152785007927 ], [ -85.528623157057211, 38.255448583575692 ], [ -85.533465394320672, 38.253135897600828 ], [ -85.533765449654069, 38.253806974197197 ], [ -85.542291615724821, 38.251666450880919 ], [ -85.543920081590656, 38.255618163710444 ], [ -85.5473947293669, 38.254575525717655 ], [ -85.548502918641574, 38.257024204889063 ], [ -85.549544679501068, 38.256739611687351 ], [ -85.550291461374613, 38.258430917036257 ], [ -85.551866670982889, 38.258155303245076 ], [ -85.552863364022315, 38.260025472786424 ], [ -85.553810417862564, 38.262278526355097 ], [ -85.555176910446477, 38.263345381294776 ], [ -85.554800595801083, 38.264828895417438 ], [ -85.555778851903469, 38.266009272682574 ], [ -85.555816239504821, 38.266683971882443 ], [ -85.555491808861788, 38.267159189076878 ], [ -85.552438410771444, 38.266481299499993 ], [ -85.551467553861258, 38.269354947561069 ], [ -85.554325208003448, 38.270220257536771 ], [ -85.559655414897065, 38.270930104528425 ], [ -85.57426607090018, 38.270800084457605 ], [ -85.568447729747717, 38.272562216083507 ], [ -85.570442250580811, 38.277063145008789 ], [ -85.571621149996972, 38.278693299881809 ], [ -85.573358305733393, 38.278631591315794 ], [ -85.574456348477426, 38.278891717985807 ], [ -85.575282721709343, 38.279279870932072 ], [ -85.576916833961008, 38.279403304151117 ], [ -85.577843836518809, 38.2790543065516 ], [ -85.578227836997485, 38.278589304164086 ], [ -85.578083836533096, 38.278365306620266 ], [ -85.578457833524155, 38.278083305885573 ], [ -85.578741834677572, 38.278272305945862 ], [ -85.579370837208501, 38.278072303148427 ], [ -85.579945834505281, 38.277455305181604 ], [ -85.579935836771483, 38.277199304136964 ], [ -85.580580736011456, 38.276933305712738 ], [ -85.580959836584341, 38.277953303960643 ], [ -85.581388913135982, 38.278370594460895 ], [ -85.584513835354755, 38.27893655891944 ], [ -85.584447699333737, 38.279715035137322 ], [ -85.584961006925255, 38.280257384999111 ], [ -85.585747453459575, 38.280342456864446 ], [ -85.586740740251287, 38.279982318499357 ], [ -85.58695759812133, 38.280554333512036 ], [ -85.586596538833291, 38.280985347104128 ], [ -85.587212981477705, 38.281799075808742 ], [ -85.586776222364861, 38.282009523784474 ], [ -85.590445975943837, 38.28661007885065 ], [ -85.581390510118894, 38.29097413420498 ], [ -85.582456590018907, 38.29229066067353 ], [ -85.583106587739437, 38.292724025580213 ], [ -85.583829251411728, 38.292933779459361 ], [ -85.586307031909527, 38.293134100561808 ], [ -85.587349604266777, 38.293678789824192 ], [ -85.592682448162321, 38.30044146902808 ], [ -85.589404838849646, 38.302039308123483 ], [ -85.587196863938985, 38.302375456041553 ], [ -85.585413838752942, 38.303008310858246 ], [ -85.584257195611912, 38.302832665842907 ], [ -85.582737836440145, 38.302173307918686 ], [ -85.581192456284441, 38.302597465265343 ], [ -85.578788838513333, 38.304121310097386 ], [ -85.572970837638806, 38.308960310435559 ], [ -85.570619837025887, 38.310611311851382 ], [ -85.568338836621038, 38.312061313151581 ], [ -85.561356368865262, 38.315682965300532 ], [ -85.553243831781586, 38.317447312537546 ], [ -85.547735826822645, 38.317567313148075 ], [ -85.545597898889113, 38.317281077310717 ] ] ] } },
{ "type": "Feature", "properties": { "district": 21 }, "geometry": { "type": "Polygon", "coordinates": [ [ [ -85.733543460095845, 38.210359055965121 ], [ -85.732880851172169, 38.209389711990077 ], [ -85.732895560942509, 38.207681638235314 ], [ -85.732296182896533, 38.20674595432687 ], [ -85.7309177396004, 38.20736979646211 ], [ -85.729894831438344, 38.205818463822354 ], [ -85.735319736467744, 38.203414996553221 ], [ -85.726876130022944, 38.190397728561905 ], [ -85.726961869486061, 38.190569279950026 ], [ -85.717814869798701, 38.191155280608378 ], [ -85.714958391254882, 38.191719848626704 ], [ -85.713263869395078, 38.190956282547248 ], [ -85.710813866877984, 38.190515282523506 ], [ -85.709556868396092, 38.190585283596427 ], [ -85.704983867270712, 38.191315281050663 ], [ -85.705089906972418, 38.191449571158842 ], [ -85.701208751984339, 38.186543613425762 ], [ -85.69886437779455, 38.183329273566287 ], [ -85.698061153140827, 38.182541375440991 ], [ -85.696425667814765, 38.181582579414879 ], [ -85.697462864008699, 38.174630279561804 ], [ -85.697782861493209, 38.174064278380669 ], [ -85.698593865044174, 38.173715279142236 ], [ -85.706828865517465, 38.173893279499403 ], [ -85.708783864304181, 38.173046278343286 ], [ -85.707859865514052, 38.172151279356036 ], [ -85.709235798533086, 38.171310319737813 ], [ -85.701736863222948, 38.164171275250723 ], [ -85.700166862013589, 38.162381275537577 ], [ -85.691297836066809, 38.146707559257479 ], [ -85.700022124238629, 38.147690409059685 ], [ -85.700145194178035, 38.148341073277294 ], [ -85.700053484592331, 38.150996712428729 ], [ -85.714111863836905, 38.151657273210297 ], [ -85.714681161465123, 38.151382775525285 ], [ -85.719804866095259, 38.159614274986211 ], [ -85.720659976835393, 38.161440491696119 ], [ -85.720945866717287, 38.163374274797256 ], [ -85.720793749386999, 38.169648786471889 ], [ -85.725419870260524, 38.17081927882348 ], [ -85.727546333371095, 38.167114227327808 ], [ -85.731566870095591, 38.15867227636042 ], [ -85.734542874228225, 38.16079327527968 ], [ -85.739249855820788, 38.165420279454501 ], [ -85.744952876563843, 38.17158627611871 ], [ -85.750982877676165, 38.167411274485836 ], [ -85.751042774772941, 38.167632964704069 ], [ -85.749441008133658, 38.161641073612905 ], [ -85.749433002679083, 38.161031917374594 ], [ -85.749737594698516, 38.15952017620139 ], [ -85.750334137965993, 38.158487083624067 ], [ -85.751381318895113, 38.157387300641602 ], [ -85.757718260704948, 38.152877792139151 ], [ -85.763577734118925, 38.158063586314235 ], [ -85.764663462730681, 38.157299615515342 ], [ -85.764664827488161, 38.156259645550257 ], [ -85.765432806769098, 38.152919575055265 ], [ -85.766711701517195, 38.151102848590604 ], [ -85.764170842585756, 38.148303938588015 ], [ -85.76693390679246, 38.146806930829428 ], [ -85.771115270765705, 38.147634050434696 ], [ -85.770014557920632, 38.148502945852812 ], [ -85.770802703822085, 38.149354547740998 ], [ -85.771754577499209, 38.14874863311973 ], [ -85.776306603719817, 38.150647007907587 ], [ -85.782546829203895, 38.174936886889085 ], [ -85.782820887240888, 38.177813278230857 ], [ -85.783169077198409, 38.179009613451932 ], [ -85.784021215407293, 38.184901463324685 ], [ -85.783119810663393, 38.184913266398155 ], [ -85.782651990026878, 38.187786412838747 ], [ -85.779780736888952, 38.187380155532914 ], [ -85.776587199093214, 38.18818362824836 ], [ -85.776379266762518, 38.18840040943352 ], [ -85.776300398015493, 38.188817994643522 ], [ -85.775241487563193, 38.188858113181951 ], [ -85.775094556535649, 38.189439701946924 ], [ -85.772060848816579, 38.189765720488168 ], [ -85.758482772658766, 38.190308459704831 ], [ -85.754614910101608, 38.190324189304079 ], [ -85.755076388521758, 38.192081721569572 ], [ -85.755005397887743, 38.192326653451268 ], [ -85.755247007127721, 38.192668954314293 ], [ -85.755564428477385, 38.1938493290249 ], [ -85.753762280411451, 38.194160822816677 ], [ -85.750253922002443, 38.193995364968693 ], [ -85.750253880726987, 38.194874280992536 ], [ -85.750891877416507, 38.194896280319732 ], [ -85.750804485352532, 38.199884471838672 ], [ -85.749819652263682, 38.199741776181838 ], [ -85.74946945459115, 38.200202107308002 ], [ -85.748965422001632, 38.200527104226126 ], [ -85.746629803655082, 38.20139978207721 ], [ -85.746029421262449, 38.2019348162002 ], [ -85.745044265452435, 38.203502128206033 ], [ -85.744028684409173, 38.204169783752917 ], [ -85.74532789066167, 38.207213283127331 ], [ -85.737558961685195, 38.206901620747992 ], [ -85.738278380081169, 38.208044308149098 ], [ -85.734745388030632, 38.209225477975686 ], [ -85.735000205547379, 38.20967486642153 ], [ -85.733543460095845, 38.210359055965121 ] ] ] } },
{ "type": "Feature", "properties": { "district": 23 }, "geometry": { "type": "Polygon", "coordinates": [ [ [ -85.61087731557086, 38.155701235000123 ], [ -85.608446507167187, 38.155866118777297 ], [ -85.597630832949704, 38.155424282366077 ], [ -85.597845434510148, 38.154665760422169 ], [ -85.598238832671228, 38.154002280924537 ], [ -85.598548938844075, 38.152536504273868 ], [ -85.598391938408383, 38.151762098564376 ], [ -85.598200861585298, 38.151640090570531 ], [ -85.598428332174905, 38.151177671312112 ], [ -85.602003132212246, 38.151322679470631 ], [ -85.602240378071471, 38.148809923549344 ], [ -85.606224032317868, 38.14898727313021 ], [ -85.606820086898878, 38.143983941939823 ], [ -85.601131307339955, 38.143673962744288 ], [ -85.601023003028772, 38.143459713181628 ], [ -85.601153992975952, 38.141168032773457 ], [ -85.600623989262317, 38.139884332385456 ], [ -85.603122802678683, 38.138630857515537 ], [ -85.606587834326007, 38.138619277306937 ], [ -85.609749340140255, 38.137513849923629 ], [ -85.609205478281623, 38.137356784046588 ], [ -85.609035307501571, 38.137023851600595 ], [ -85.608435712912595, 38.13653474142415 ], [ -85.608347082397486, 38.136091664535812 ], [ -85.607273635625205, 38.135352657283278 ], [ -85.607059024612042, 38.134988959325383 ], [ -85.60359590339776, 38.133596039352547 ], [ -85.603125956455756, 38.133254275620175 ], [ -85.602428741822337, 38.132296396880754 ], [ -85.602024659233351, 38.132061109402891 ], [ -85.601779584595292, 38.130914940917904 ], [ -85.601814817353244, 38.130232673401913 ], [ -85.601630369201047, 38.129828409650401 ], [ -85.601241842368765, 38.129506950827661 ], [ -85.600683640410836, 38.128282293639856 ], [ -85.600781983020326, 38.126925840078542 ], [ -85.599050073424479, 38.126725498912727 ], [ -85.598847655819327, 38.126560233060395 ], [ -85.5991373867178, 38.122971051414893 ], [ -85.601840714657442, 38.122974642629153 ], [ -85.602334817733521, 38.116616617231955 ], [ -85.603135723544796, 38.115404703764582 ], [ -85.604704450140289, 38.115375415827742 ], [ -85.60529969493642, 38.114936306819132 ], [ -85.605883288844637, 38.114915102116683 ], [ -85.606255445391824, 38.111063880305679 ], [ -85.611749475740595, 38.111363624576832 ], [ -85.611913830730828, 38.108665269971347 ], [ -85.613836709271993, 38.108717068855 ], [ -85.614236373633162, 38.099384997013495 ], [ -85.614564832810473, 38.09656826971429 ], [ -85.615060831540191, 38.09574726757279 ], [ -85.61422283168946, 38.095309268651675 ], [ -85.614466830777943, 38.094445268798452 ], [ -85.61503983068711, 38.094098269543061 ], [ -85.615685442223139, 38.094058487477206 ], [ -85.615656652339339, 38.094342906815449 ], [ -85.618401614103817, 38.094722665840351 ], [ -85.621951458134063, 38.095043172728957 ], [ -85.622281084599692, 38.094947564193447 ], [ -85.623101592730407, 38.087364765823175 ], [ -85.623731036264218, 38.07963791063505 ], [ -85.643018552084087, 38.081258947107223 ], [ -85.642604026930215, 38.081781584069567 ], [ -85.642532842869528, 38.082309264878845 ], [ -85.642294356898432, 38.082581374366953 ], [ -85.642288913029105, 38.083347474097273 ], [ -85.642706599981523, 38.083604072455792 ], [ -85.644142838532886, 38.083795264012018 ], [ -85.644502542654322, 38.084284476855693 ], [ -85.644157571588693, 38.084936250117572 ], [ -85.642620128149559, 38.085731064701648 ], [ -85.642572782919387, 38.086126707710413 ], [ -85.642851404939307, 38.087301485602872 ], [ -85.642549300389732, 38.087541794212981 ], [ -85.642099451066287, 38.087581669781557 ], [ -85.643855579682011, 38.089150694465467 ], [ -85.644483265882002, 38.089486918448159 ], [ -85.647030752882145, 38.089976456587301 ], [ -85.649097139916748, 38.090020049565588 ], [ -85.651367051574979, 38.090380889924809 ], [ -85.657674516922114, 38.091782137176082 ], [ -85.6644109876177, 38.092154845096694 ], [ -85.668284449181144, 38.092888147919098 ], [ -85.669166630013606, 38.092823470234769 ], [ -85.671782997435173, 38.101753801319795 ], [ -85.672585466581197, 38.103512422276538 ], [ -85.67070916695782, 38.103851305580193 ], [ -85.650430283341962, 38.102853065992008 ], [ -85.646934644403899, 38.11060014412719 ], [ -85.646611000753268, 38.111595171240523 ], [ -85.646335197376317, 38.116074976839045 ], [ -85.646668843848587, 38.116700269278248 ], [ -85.646688841616978, 38.117881270033905 ], [ -85.64707826353829, 38.118146876641568 ], [ -85.648425001818325, 38.121737048225256 ], [ -85.657232836867692, 38.119314511991796 ], [ -85.662144809608606, 38.118139901080689 ], [ -85.667070382842496, 38.117332433949173 ], [ -85.669032753287411, 38.117260261362183 ], [ -85.669397045399023, 38.117463856696098 ], [ -85.669401665787262, 38.117773782978567 ], [ -85.668054505060908, 38.120788628506169 ], [ -85.665851007602313, 38.125049776701189 ], [ -85.663484679207627, 38.128190965936739 ], [ -85.660841882154457, 38.130185330175124 ], [ -85.660418902959236, 38.130695612240658 ], [ -85.659107820726717, 38.133753795490342 ], [ -85.658890982535809, 38.1349633293474 ], [ -85.657608237477319, 38.137775351624171 ], [ -85.65761274456078, 38.138980342398384 ], [ -85.65237273592939, 38.138509998477119 ], [ -85.646932587495712, 38.1383533628183 ], [ -85.641898225455293, 38.137958439476712 ], [ -85.641896843334649, 38.139553276656997 ], [ -85.64340284523189, 38.139830275895868 ], [ -85.643715842430169, 38.140211274730994 ], [ -85.643243843904685, 38.153992277380489 ], [ -85.642615844812852, 38.153171277759597 ], [ -85.642081846411443, 38.153097277074266 ], [ -85.641628843578005, 38.152825278509027 ], [ -85.641363845091576, 38.153082277261554 ], [ -85.640849841837095, 38.153073279582195 ], [ -85.640740844860161, 38.153290276780105 ], [ -85.640509843917016, 38.153331277006515 ], [ -85.639648843593037, 38.152709279152489 ], [ -85.638384842192693, 38.152199276670657 ], [ -85.637455843428413, 38.15161427934683 ], [ -85.636945844515111, 38.151107276734209 ], [ -85.635887843063458, 38.150560276651078 ], [ -85.635298842064458, 38.149967277192651 ], [ -85.632605678836782, 38.149267338652834 ], [ -85.631991839378102, 38.149301277279704 ], [ -85.631942840428721, 38.151648280092459 ], [ -85.631438088943298, 38.152401730227091 ], [ -85.629593839845043, 38.151409278718944 ], [ -85.628614657859757, 38.150328964418534 ], [ -85.628886364582925, 38.152235847808157 ], [ -85.629861840385814, 38.155188280290581 ], [ -85.624628840347313, 38.15578627974697 ], [ -85.624279839664396, 38.157262280156104 ], [ -85.614314655805174, 38.159670001323171 ], [ -85.614445710728461, 38.159565844310201 ], [ -85.614658153315048, 38.156295830095971 ], [ -85.612608579407009, 38.156140181431887 ], [ -85.61087731557086, 38.155701235000123 ] ] ] } }
]
}
